{
  "type": "FeatureCollection",
  "features": [
    {
      "type": "Feature",
      "properties": {
        "norad_id": 39773,
        "name": "EUTELSAT 3B",
        "group": "eutelsat",
        "lat": -0.07930781014207414,
        "lon": -108.43283934968893,
        "alt_km": 35767.311696279896,
        "timestamp": "2025-12-07T11:27:49.659437+00:00",
        "meta_object_name": "EUTELSAT 3B",
        "meta_object_id": "2014-030A",
        "meta_epoch": "2025-12-06T21:58:38.690976",
        "meta_mean_motion": 1.00271751,
        "meta_eccentricity": 0.00047148,
        "meta_inclination": 0.0651,
        "meta_ra_of_asc_node": 11.5729,
        "meta_arg_of_pericenter": 219.942,
        "meta_mean_anomaly": 177.1921,
        "meta_ephemeris_type": 0,
        "meta_classification_type": "U",
        "meta_norad_cat_id": 39773,
        "meta_element_set_no": 999,
        "meta_rev_at_epoch": 4213,
        "meta_bstar": 0,
        "meta_mean_motion_dot": 2.6e-07,
        "meta_mean_motion_ddot": 0,
        "tle_line1": "1 39773U 14030A   25340.91572559  .00000026  00000+0  00000+0 0  9990",
        "tle_line2": "2 39773   0.0651  11.5729 0004714 219.9420 177.1921  1.00271751 42133"
      },
      "geometry": {
        "type": "Point",
        "coordinates": [
          -108.43283934968893,
          -0.07930781014207414
        ]
      }
    },
    {
      "type": "Feature",
      "properties": {
        "norad_id": 40425,
        "name": "EUTELSAT 115 WEST B",
        "group": "eutelsat",
        "lat": -0.005044491166498544,
        "lon": 133.58191030117425,
        "alt_km": 35785.849379433195,
        "timestamp": "2025-12-07T11:27:49.659453+00:00",
        "meta_object_name": "EUTELSAT 115 WEST B",
        "meta_object_id": "2015-010B",
        "meta_epoch": "2025-12-06T10:47:28.419072",
        "meta_mean_motion": 1.00271104,
        "meta_eccentricity": 3.126e-05,
        "meta_inclination": 0.007,
        "meta_ra_of_asc_node": 143.6476,
        "meta_arg_of_pericenter": 276.9333,
        "meta_mean_anomaly": 61.9058,
        "meta_ephemeris_type": 0,
        "meta_classification_type": "U",
        "meta_norad_cat_id": 40425,
        "meta_element_set_no": 999,
        "meta_rev_at_epoch": 3946,
        "meta_bstar": 0,
        "meta_mean_motion_dot": -1.8e-07,
        "meta_mean_motion_ddot": 0,
        "tle_line1": "1 40425U 15010B   25340.44963448 -.00000018  00000+0  00000+0 0  9996",
        "tle_line2": "2 40425   0.0070 143.6476 0000312 276.9333  61.9058  1.00271104 39461"
      },
      "geometry": {
        "type": "Point",
        "coordinates": [
          133.58191030117425,
          -0.005044491166498544
        ]
      }
    },
    {
      "type": "Feature",
      "properties": {
        "norad_id": 40875,
        "name": "EUTELSAT 8 WEST B",
        "group": "eutelsat",
        "lat": -0.08214689322687516,
        "lon": -119.55247373374104,
        "alt_km": 35769.42881236478,
        "timestamp": "2025-12-07T11:27:49.659466+00:00",
        "meta_object_name": "EUTELSAT 8 WEST B",
        "meta_object_id": "2015-039B",
        "meta_epoch": "2025-12-06T22:06:38.876256",
        "meta_mean_motion": 1.00271351,
        "meta_eccentricity": 0.00041371,
        "meta_inclination": 0.0645,
        "meta_ra_of_asc_node": 355.0916,
        "meta_arg_of_pericenter": 262.1587,
        "meta_mean_anomaly": 142.3766,
        "meta_ephemeris_type": 0,
        "meta_classification_type": "U",
        "meta_norad_cat_id": 40875,
        "meta_element_set_no": 999,
        "meta_rev_at_epoch": 3772,
        "meta_bstar": 0,
        "meta_mean_motion_dot": -6e-07,
        "meta_mean_motion_ddot": 0,
        "tle_line1": "1 40875U 15039B   25340.92128329 -.00000060  00000+0  00000+0 0  9997",
        "tle_line2": "2 40875   0.0645 355.0916 0004137 262.1587 142.3766  1.00271351 37724"
      },
      "geometry": {
        "type": "Point",
        "coordinates": [
          -119.55247373374104,
          -0.08214689322687516
        ]
      }
    },
    {
      "type": "Feature",
      "properties": {
        "norad_id": 41310,
        "name": "EUTELSAT 9B",
        "group": "eutelsat",
        "lat": -0.0260505785401636,
        "lon": -102.5608880507911,
        "alt_km": 35764.863254087155,
        "timestamp": "2025-12-07T11:27:49.659478+00:00",
        "meta_object_name": "EUTELSAT 9B",
        "meta_object_id": "2016-005A",
        "meta_epoch": "2025-12-06T21:50:38.745024",
        "meta_mean_motion": 1.00272556,
        "meta_eccentricity": 0.0005029,
        "meta_inclination": 0.0751,
        "meta_ra_of_asc_node": 75.8515,
        "meta_arg_of_pericenter": 191.9577,
        "meta_mean_anomaly": 144.7914,
        "meta_ephemeris_type": 0,
        "meta_classification_type": "U",
        "meta_norad_cat_id": 41310,
        "meta_element_set_no": 999,
        "meta_rev_at_epoch": 3618,
        "meta_bstar": 0,
        "meta_mean_motion_dot": 6.8e-07,
        "meta_mean_motion_ddot": 0,
        "tle_line1": "1 41310U 16005A   25340.91017066  .00000068  00000+0  00000+0 0  9997",
        "tle_line2": "2 41310   0.0751  75.8515 0005029 191.9577 144.7914  1.00272556 36186"
      },
      "geometry": {
        "type": "Point",
        "coordinates": [
          -102.5608880507911,
          -0.0260505785401636
        ]
      }
    },
    {
      "type": "Feature",
      "properties": {
        "norad_id": 41382,
        "name": "EUTELSAT 65 WEST A",
        "group": "eutelsat",
        "lat": -0.01453732509542216,
        "lon": -176.7991562836576,
        "alt_km": 35785.05893816092,
        "timestamp": "2025-12-07T11:27:49.659490+00:00",
        "meta_object_name": "EUTELSAT 65 WEST A",
        "meta_object_id": "2016-014A",
        "meta_epoch": "2025-12-06T21:54:54.279936",
        "meta_mean_motion": 1.00269506,
        "meta_eccentricity": 0.00028768,
        "meta_inclination": 0.0494,
        "meta_ra_of_asc_node": 356.1689,
        "meta_arg_of_pericenter": 268.9659,
        "meta_mean_anomaly": 74.3245,
        "meta_ephemeris_type": 0,
        "meta_classification_type": "U",
        "meta_norad_cat_id": 41382,
        "meta_element_set_no": 999,
        "meta_rev_at_epoch": 3560,
        "meta_bstar": 0,
        "meta_mean_motion_dot": -2.71e-06,
        "meta_mean_motion_ddot": 0,
        "tle_line1": "1 41382U 16014A   25340.91312824 -.00000271  00000+0  00000+0 0  9993",
        "tle_line2": "2 41382   0.0494 356.1689 0002876 268.9659  74.3245  1.00269506 35601"
      },
      "geometry": {
        "type": "Point",
        "coordinates": [
          -176.7991562836576,
          -0.01453732509542216
        ]
      }
    },
    {
      "type": "Feature",
      "properties": {
        "norad_id": 41589,
        "name": "EUTELSAT 117 WEST B",
        "group": "eutelsat",
        "lat": -0.008334303423699901,
        "lon": 131.44724639140907,
        "alt_km": 35785.345929461204,
        "timestamp": "2025-12-07T11:27:49.659502+00:00",
        "meta_object_name": "EUTELSAT 117 WEST B",
        "meta_object_id": "2016-038B",
        "meta_epoch": "2025-12-06T21:40:10.692192",
        "meta_mean_motion": 1.00270331,
        "meta_eccentricity": 3.265e-05,
        "meta_inclination": 0.0031,
        "meta_ra_of_asc_node": 151.3516,
        "meta_arg_of_pericenter": 304.7129,
        "meta_mean_anomaly": 187.9125,
        "meta_ephemeris_type": 0,
        "meta_classification_type": "U",
        "meta_norad_cat_id": 41589,
        "meta_element_set_no": 999,
        "meta_rev_at_epoch": 3473,
        "meta_bstar": 0,
        "meta_mean_motion_dot": -6e-08,
        "meta_mean_motion_ddot": 0,
        "tle_line1": "1 41589U 16038B   25340.90290153 -.00000006  00000+0  00000+0 0  9993",
        "tle_line2": "2 41589   0.0031 151.3516 0000326 304.7129 187.9125  1.00270331 34739"
      },
      "geometry": {
        "type": "Point",
        "coordinates": [
          131.44724639140907,
          -0.008334303423699901
        ]
      }
    },
    {
      "type": "Feature",
      "properties": {
        "norad_id": 42741,
        "name": "EUTELSAT 172B",
        "group": "eutelsat",
        "lat": 0.0051034883151614575,
        "lon": 60.438817688741516,
        "alt_km": 35788.82064916104,
        "timestamp": "2025-12-07T11:27:49.659515+00:00",
        "meta_object_name": "EUTELSAT 172B",
        "meta_object_id": "2017-029B",
        "meta_epoch": "2025-12-06T21:19:57.628416",
        "meta_mean_motion": 1.00265447,
        "meta_eccentricity": 3.7e-05,
        "meta_inclination": 0.01,
        "meta_ra_of_asc_node": 82.5178,
        "meta_arg_of_pericenter": 107.1069,
        "meta_mean_anomaly": 18.2914,
        "meta_ephemeris_type": 0,
        "meta_classification_type": "U",
        "meta_norad_cat_id": 42741,
        "meta_element_set_no": 999,
        "meta_rev_at_epoch": 3180,
        "meta_bstar": 0,
        "meta_mean_motion_dot": -1e-08,
        "meta_mean_motion_ddot": 0,
        "tle_line1": "1 42741U 17029B   25340.88886144 -.00000001  00000+0  00000+0 0  9998",
        "tle_line2": "2 42741   0.0100  82.5178 0000370 107.1069  18.2914  1.00265447 31802"
      },
      "geometry": {
        "type": "Point",
        "coordinates": [
          60.438817688741516,
          0.0051034883151614575
        ]
      }
    }
  ]
}